IRIDIUM 39              
1 25042U 97069D   25059.09579699  .00001770  00000+0  46153-3 0  9995
2 25042  86.3860 257.9022 0016508 316.3242  43.6654 14.48942315433429
IRIDIUM 38              
1 25043U 97069E   25059.54995309  .00000977  00000+0  31718-3 0  9995
2 25043  86.3911 278.8860 0003936  91.0284 269.1365 14.37941263430603
IRIDIUM 42              
1 25077U 97077A   25059.14449044  .00001007  00000+0  33872-3 0  9995
2 25077  86.3924 285.0974 0002682  93.3870 266.7633 14.36191420425542
IRIDIUM 44              
1 25078U 97077B   25059.11507331  .00001189  00000+0  37101-3 0  9997
2 25078  86.3905 267.3037 0003383  59.3855 300.7678 14.40065737428030
IRIDIUM 45              
1 25104U 97082A   25059.55716335  .00026496  00000+0  10767-2 0  9993
2 25104  86.3565 100.4602 0128700  18.7845 341.8079 15.17032678435791
IRIDIUM 24              
1 25105U 97082B   25059.50550614  .00001153  00000+0  34589-3 0  9997
2 25105  86.3916 126.4105 0013544  80.3706 279.9023 14.41916978427801
IRIDIUM 51              
1 25262U 98018A   25059.51292358  .00047444  00000+0  13618-2 0  9992
2 25262  86.3848 109.2844 0100465 305.8504  53.3444 15.30681622430571
IRIDIUM 57              
1 25273U 98019B   25059.45611254  .00001156  00000+0  39344-3 0  9993
2 25273  86.4020 190.7677 0002114  93.6908 266.4531 14.35759162409396
